[{"OBJECT_NAME":"PAKSAT-MM1","OBJECT_ID":"2024-104A","EPOCH":"2026-04-27T04:56:38.684256","MEAN_MOTION":1.00274104,"ECCENTRICITY":0.00022189,"INCLINATION":0.0175,"RA_OF_ASC_NODE":199.4205,"ARG_OF_PERICENTER":182.3362,"MEAN_ANOMALY":305.8077,"EPHEMERIS_TYPE":0,"CLASSIFICATION_TYPE":"U","NORAD_CAT_ID":59915,"ELEMENT_SET_NO":999,"REV_AT_EPOCH":701,"BSTAR":0,"MEAN_MOTION_DOT":1.43e-6,"MEAN_MOTION_DDOT":0},{"OBJECT_NAME":"ASTRA 1P (SES-24)","OBJECT_ID":"2024-115A","EPOCH":"2026-04-26T23:55:35.143392","MEAN_MOTION":1.00280132,"ECCENTRICITY":0.00033304,"INCLINATION":0.0821,"RA_OF_ASC_NODE":43.3286,"ARG_OF_PERICENTER":280.3888,"MEAN_ANOMALY":269.3719,"EPHEMERIS_TYPE":0,"CLASSIFICATION_TYPE":"U","NORAD_CAT_ID":60086,"ELEMENT_SET_NO":999,"REV_AT_EPOCH":668,"BSTAR":0,"MEAN_MOTION_DOT":1.1e-6,"MEAN_MOTION_DDOT":0},{"OBJECT_NAME":"GOES 19","OBJECT_ID":"2024-119A","EPOCH":"2026-04-27T04:35:38.533344","MEAN_MOTION":1.00272942,"ECCENTRICITY":5.499e-5,"INCLINATION":0.027,"RA_OF_ASC_NODE":67.875,"ARG_OF_PERICENTER":17.0151,"MEAN_ANOMALY":124.0038,"EPHEMERIS_TYPE":0,"CLASSIFICATION_TYPE":"U","NORAD_CAT_ID":60133,"ELEMENT_SET_NO":999,"REV_AT_EPOCH":645,"BSTAR":0,"MEAN_MOTION_DOT":-2.59e-6,"MEAN_MOTION_DDOT":0},{"OBJECT_NAME":"ZHONGXING-3A","OBJECT_ID":"2024-122A","EPOCH":"2026-04-27T04:46:21.775296","MEAN_MOTION":1.00270744,"ECCENTRICITY":0.0001864,"INCLINATION":0.0368,"RA_OF_ASC_NODE":38.2881,"ARG_OF_PERICENTER":0.3094,"MEAN_ANOMALY":349.7697,"EPHEMERIS_TYPE":0,"CLASSIFICATION_TYPE":"U","NORAD_CAT_ID":60179,"ELEMENT_SET_NO":999,"REV_AT_EPOCH":679,"BSTAR":0,"MEAN_MOTION_DOT":-3.24e-6,"MEAN_MOTION_DDOT":0},{"OBJECT_NAME":"TURKSAT 6A","OBJECT_ID":"2024-127A","EPOCH":"2026-04-27T04:48:38.757312","MEAN_MOTION":1.00272005,"ECCENTRICITY":0.0001111,"INCLINATION":0.0337,"RA_OF_ASC_NODE":169.0458,"ARG_OF_PERICENTER":176.5038,"MEAN_ANOMALY":343.7932,"EPHEMERIS_TYPE":0,"CLASSIFICATION_TYPE":"U","NORAD_CAT_ID":60233,"ELEMENT_SET_NO":999,"REV_AT_EPOCH":650,"BSTAR":0,"MEAN_MOTION_DOT":1.36e-6,"MEAN_MOTION_DDOT":0},{"OBJECT_NAME":"HULIANWAN GAOGUI-02 (HG-02)","OBJECT_ID":"2024-135A","EPOCH":"2026-04-27T06:37:57.947232","MEAN_MOTION":1.00269809,"ECCENTRICITY":0.00087226,"INCLINATION":0.0456,"RA_OF_ASC_NODE":3.5517,"ARG_OF_PERICENTER":355.8234,"MEAN_ANOMALY":108.4391,"EPHEMERIS_TYPE":0,"CLASSIFICATION_TYPE":"U","NORAD_CAT_ID":60327,"ELEMENT_SET_NO":999,"REV_AT_EPOCH":699,"BSTAR":0,"MEAN_MOTION_DOT":-1.84e-6,"MEAN_MOTION_DDOT":0},{"OBJECT_NAME":"ZHONGXING-4A","OBJECT_ID":"2024-151A","EPOCH":"2026-04-27T00:32:38.781312","MEAN_MOTION":1.0026899,"ECCENTRICITY":0.00011684,"INCLINATION":1.445,"RA_OF_ASC_NODE":271.4382,"ARG_OF_PERICENTER":108.9645,"MEAN_ANOMALY":320.9673,"EPHEMERIS_TYPE":0,"CLASSIFICATION_TYPE":"U","NORAD_CAT_ID":60606,"ELEMENT_SET_NO":999,"REV_AT_EPOCH":624,"BSTAR":0,"MEAN_MOTION_DOT":-3.75e-6,"MEAN_MOTION_DDOT":0},{"OBJECT_NAME":"HULIANWAN GAOGUI-03 (HG-03)","OBJECT_ID":"2024-181A","EPOCH":"2026-04-27T08:00:38.470176","MEAN_MOTION":1.00267622,"ECCENTRICITY":8.99e-5,"INCLINATION":0.0467,"RA_OF_ASC_NODE":12.8203,"ARG_OF_PERICENTER":93.058,"MEAN_ANOMALY":152.4546,"EPHEMERIS_TYPE":0,"CLASSIFICATION_TYPE":"U","NORAD_CAT_ID":61503,"ELEMENT_SET_NO":999,"REV_AT_EPOCH":631,"BSTAR":0,"MEAN_MOTION_DOT":-2.5e-6,"MEAN_MOTION_DDOT":0},{"OBJECT_NAME":"DSN-3 (KIRAMEKI-3)","OBJECT_ID":"2024-198A","EPOCH":"2026-04-27T05:18:38.510784","MEAN_MOTION":1.00272807,"ECCENTRICITY":5.634e-5,"INCLINATION":0.019,"RA_OF_ASC_NODE":254.0057,"ARG_OF_PERICENTER":94.1336,"MEAN_ANOMALY":90.7966,"EPHEMERIS_TYPE":0,"CLASSIFICATION_TYPE":"U","NORAD_CAT_ID":61733,"ELEMENT_SET_NO":999,"REV_AT_EPOCH":540,"BSTAR":0,"MEAN_MOTION_DOT":-2.6e-6,"MEAN_MOTION_DDOT":0},{"OBJECT_NAME":"KOREASAT 6A","OBJECT_ID":"2024-206A","EPOCH":"2026-04-27T00:23:09.998880","MEAN_MOTION":1.00271097,"ECCENTRICITY":9.094e-5,"INCLINATION":0.0482,"RA_OF_ASC_NODE":85.9175,"ARG_OF_PERICENTER":292.1524,"MEAN_ANOMALY":318.767,"EPHEMERIS_TYPE":0,"CLASSIFICATION_TYPE":"U","NORAD_CAT_ID":61910,"ELEMENT_SET_NO":999,"REV_AT_EPOCH":532,"BSTAR":0,"MEAN_MOTION_DOT":-3.73e-6,"MEAN_MOTION_DDOT":0},{"OBJECT_NAME":"OPTUS-X (ADS-01)","OBJECT_ID":"2024-212A","EPOCH":"2026-04-27T07:06:19.284192","MEAN_MOTION":1.0027068,"ECCENTRICITY":0.0001386,"INCLINATION":0.0157,"RA_OF_ASC_NODE":266.6558,"ARG_OF_PERICENTER":165.7528,"MEAN_ANOMALY":45.8659,"EPHEMERIS_TYPE":0,"CLASSIFICATION_TYPE":"U","NORAD_CAT_ID":62006,"ELEMENT_SET_NO":999,"REV_AT_EPOCH":525,"BSTAR":0,"MEAN_MOTION_DOT":-1.53e-6,"MEAN_MOTION_DDOT":0},{"OBJECT_NAME":"GSAT-N2 (GSAT-20)","OBJECT_ID":"2024-214A","EPOCH":"2026-04-27T04:16:38.848224","MEAN_MOTION":1.00269636,"ECCENTRICITY":0.00013314,"INCLINATION":0.062,"RA_OF_ASC_NODE":84.2097,"ARG_OF_PERICENTER":27.7613,"MEAN_ANOMALY":235.376,"EPHEMERIS_TYPE":0,"CLASSIFICATION_TYPE":"U","NORAD_CAT_ID":62028,"ELEMENT_SET_NO":999,"REV_AT_EPOCH":538,"BSTAR":0,"MEAN_MOTION_DOT":-3.0e-7,"MEAN_MOTION_DDOT":0},{"OBJECT_NAME":"SXM-9","OBJECT_ID":"2024-234A","EPOCH":"2026-04-27T05:41:36.888000","MEAN_MOTION":1.00273289,"ECCENTRICITY":0.0004896,"INCLINATION":0.016,"RA_OF_ASC_NODE":304.0452,"ARG_OF_PERICENTER":8.5322,"MEAN_ANOMALY":262.9015,"EPHEMERIS_TYPE":0,"CLASSIFICATION_TYPE":"U","NORAD_CAT_ID":62259,"ELEMENT_SET_NO":999,"REV_AT_EPOCH":506,"BSTAR":0,"MEAN_MOTION_DOT":-2.16e-6,"MEAN_MOTION_DDOT":0},{"OBJECT_NAME":"TJS-12","OBJECT_ID":"2024-246A","EPOCH":"2026-04-27T06:49:31.351296","MEAN_MOTION":1.0026831,"ECCENTRICITY":0.00021731,"INCLINATION":0.7843,"RA_OF_ASC_NODE":294.9905,"ARG_OF_PERICENTER":54.1787,"MEAN_ANOMALY":114.9406,"EPHEMERIS_TYPE":0,"CLASSIFICATION_TYPE":"U","NORAD_CAT_ID":62374,"ELEMENT_SET_NO":999,"REV_AT_EPOCH":505,"BSTAR":0,"MEAN_MOTION_DOT":-2.43e-6,"MEAN_MOTION_DDOT":0},{"OBJECT_NAME":"NUVIEW ALPHA","OBJECT_ID":"2024-252B","EPOCH":"2026-04-27T05:56:11.346720","MEAN_MOTION":1.0027236,"ECCENTRICITY":0.00016893,"INCLINATION":0.0677,"RA_OF_ASC_NODE":48.5946,"ARG_OF_PERICENTER":350.5218,"MEAN_ANOMALY":182.059,"EPHEMERIS_TYPE":0,"CLASSIFICATION_TYPE":"U","NORAD_CAT_ID":62455,"ELEMENT_SET_NO":999,"REV_AT_EPOCH":331,"BSTAR":0,"MEAN_MOTION_DOT":-2.25e-6,"MEAN_MOTION_DDOT":0},{"OBJECT_NAME":"AGILA","OBJECT_ID":"2024-252C","EPOCH":"2026-04-27T07:19:59.130336","MEAN_MOTION":1.00271692,"ECCENTRICITY":0.00012417,"INCLINATION":0.0544,"RA_OF_ASC_NODE":103.2679,"ARG_OF_PERICENTER":311.513,"MEAN_ANOMALY":62.6574,"EPHEMERIS_TYPE":0,"CLASSIFICATION_TYPE":"U","NORAD_CAT_ID":62456,"ELEMENT_SET_NO":999,"REV_AT_EPOCH":465,"BSTAR":0,"MEAN_MOTION_DOT":-1.91e-6,"MEAN_MOTION_DDOT":0},{"OBJECT_NAME":"NUVIEW BRAVO","OBJECT_ID":"2024-252D","EPOCH":"2026-04-27T02:02:38.599008","MEAN_MOTION":1.0027366,"ECCENTRICITY":0.00012064,"INCLINATION":0.0699,"RA_OF_ASC_NODE":152.2815,"ARG_OF_PERICENTER":303.2633,"MEAN_ANOMALY":67.0795,"EPHEMERIS_TYPE":0,"CLASSIFICATION_TYPE":"U","NORAD_CAT_ID":62457,"ELEMENT_SET_NO":999,"REV_AT_EPOCH":328,"BSTAR":0,"MEAN_MOTION_DOT":-2.26e-6,"MEAN_MOTION_DDOT":0}]
