PAKSAT-MM1              
1 59915U 24104A   26117.20600329  .00000143  00000+0  00000+0 0  9995
2 59915   0.0175 199.4205 0002218 182.3362 305.8077  1.00274104  7019
ASTRA 1P (SES-24)       
1 60086U 24115A   26116.99693453  .00000110  00000+0  00000+0 0  9997
2 60086   0.0821  43.3286 0003330 280.3888 269.3719  1.00280132  6689
GOES 19                 
1 60133U 24119A   26117.19141821 -.00000259  00000+0  00000+0 0  9999
2 60133   0.0270  67.8750 0000549  17.0151 124.0038  1.00272942  6450
ZHONGXING-3A            
1 60179U 24122A   26117.19886314 -.00000324  00000+0  00000+0 0  9999
2 60179   0.0368  38.2881 0001864   0.3094 349.7697  1.00270744  6799
TURKSAT 6A              
1 60233U 24127A   26117.20044858  .00000136  00000+0  00000+0 0  9996
2 60233   0.0337 169.0458 0001111 176.5038 343.7932  1.00272005  6505
HULIANWAN GAOGUI-02 (H*)
1 60327U 24135A   26117.27636513 -.00000184  00000+0  00000+0 0  9995
2 60327   0.0456   3.5517 0008722 355.8234 108.4391  1.00269809  6990
ZHONGXING-4A            
1 60606U 24151A   26117.02267108 -.00000375  00000+0  00000+0 0  9998
2 60606   1.4450 271.4382 0001168 108.9645 320.9673  1.00268990  6247
HULIANWAN GAOGUI-03 (H*)
1 61503U 24181A   26117.33377859 -.00000250  00000+0  00000+0 0  9999
2 61503   0.0467  12.8203 0000899  93.0580 152.4546  1.00267622  6314
DSN-3 (KIRAMEKI-3)      
1 61733U 24198A   26117.22127906 -.00000260  00000+0  00000+0 0  9997
2 61733   0.0190 254.0057 0000563  94.1336  90.7966  1.00272807  5408
KOREASAT 6A             
1 61910U 24206A   26117.01608795 -.00000373  00000+0  00000+0 0  9996
2 61910   0.0482  85.9175 0000909 292.1524 318.7670  1.00271097  5320
OPTUS-X (ADS-01)        
1 62006U 24212A   26117.29605653 -.00000153  00000+0  00000+0 0  9996
2 62006   0.0157 266.6558 0001386 165.7528  45.8659  1.00270680  5252
GSAT-N2 (GSAT-20)       
1 62028U 24214A   26117.17822741 -.00000030  00000+0  00000+0 0  9992
2 62028   0.0620  84.2097 0001331  27.7613 235.3760  1.00269636  5387
SXM-9                   
1 62259U 24234A   26117.23723250 -.00000216  00000+0  00000+0 0  9998
2 62259   0.0160 304.0452 0004896   8.5322 262.9015  1.00273289  5066
TJS-12                  
1 62374U 24246A   26117.28439064 -.00000243  00000+0  00000+0 0  9991
2 62374   0.7843 294.9905 0002173  54.1787 114.9406  1.00268310  5055
NUVIEW ALPHA            
1 62455U 24252B   26117.24735355 -.00000225  00000+0  00000+0 0  9996
2 62455   0.0677  48.5946 0001689 350.5218 182.0590  1.00272360  3311
AGILA                   
1 62456U 24252C   26117.30554549 -.00000191  00000+0  00000+0 0  9990
2 62456   0.0544 103.2679 0001241 311.5130  62.6574  1.00271692  4651
NUVIEW BRAVO            
1 62457U 24252D   26117.08516897 -.00000226  00000+0  00000+0 0  9999
2 62457   0.0699 152.2815 0001206 303.2633  67.0795  1.00273660  3285
